#aV2022 10 25  0  0  0.00000000     288 DD+AD WGS84 FIT  NGA
## 2233 172800.00000000   300.00000000 59877 0.0000000000000
+   32     1  2  3  4  5  6  7  8  9 10 11 12 13 14 15 16 17
+         18 19 20 21 22 23 24 25 26 27 28 29 30 31 32  0  0
+          0  0  0  0  0  0  0  0  0  0  0  0  0  0  0  0  0
+          0  0  0  0  0  0  0  0  0  0  0  0  0  0  0  0  0
+          0  0  0  0  0  0  0  0  0  0  0  0  0  0  0  0  0
++         2  2  2  2  2  2  2  2  2  2  2  2  2  2  2  2  2
++         2  2  2  2  2  2  2  2  2  2  2  2  2  2  2  0  0
++         0  0  0  0  0  0  0  0  0  0  0  0  0  0  0  0  0
++         0  0  0  0  0  0  0  0  0  0  0  0  0  0  0  0  0
++         0  0  0  0  0  0  0  0  0  0  0  0  0  0  0  0  0
%c cc cc ccc ccc cccc cccc cccc cccc ccccc ccccc ccccc ccccc
%c cc cc ccc ccc cccc cccc cccc cccc ccccc ccccc ccccc ccccc
%f  0.0000000  0.000000000  0.00000000000  0.000000000000000
%f  0.0000000  0.000000000  0.00000000000  0.000000000000000
%i    0    0    0    0      0      0      0      0         0
%i    0    0    0    0      0      0      0      0         0
/*      NGA, ST. LOUIS,MO.                                  
/*   EPHEMERIS COMPUTED FROM 2 DAYS OF DATA                 
/*   EPOCHA v8 SMOOTHER                                     
/*   G2139 IERS2010 SATIGS SATAPC                           
*  2022 10 25 19 30  0.00000000
P  1 -18721.184456  -9027.325630  16425.491753    261.837937                    
V  1 -10580.075557 -18465.983417 -21471.666378     -0.059603                    
P  2  19665.949035   7818.478795 -15324.190922   -640.819774                    
V  2  11139.578881  17526.411598  22492.969212      0.016423                    
P  3 -15992.339795    215.264207  21062.300163   -367.988542                    
V  3  11273.673880 -24552.928307   8861.797872     -0.035308                    
P  4 -26433.906609  -1166.153204   2887.123444    -97.652678                    
V  4   3565.309230  -2803.289913  31424.960690      0.063111                    
P  5  10590.730102  12421.329367 -21102.504480   -101.774935                    
V  5 -11308.529043  23883.821979   8571.061326     -0.014713                    
P  6   3528.500933  22220.747707  14116.482646    501.241833                    
V  6 -11077.271904 -14012.351766  25009.954639      0.103063                    
P  7 -13651.663461   6921.040079 -21305.181574    294.963868                    
V  7 -15530.129723 -23380.877794   1829.289761     -0.041097                    
P  8 -22514.738270  -6865.133541 -12693.396700    -90.603196                    
V  8  15671.304171  -3434.759203 -25662.917186     -0.019153                    
P  9 -24058.084818   7905.110243  -8165.184838   -278.179251                    
V  9 -10455.792861  -1841.531599  29268.739495      0.053388                    
P 10  11102.968059 -23930.130107    768.277253     -9.054682                    
V 10   2701.923712    431.833734 -32267.517821     -0.016513                    
P 11  11579.561069  23717.151941   3157.470871    -30.335714                    
V 11  -4320.060032  -2081.126653  31476.697325     -0.049689                    
P 12  15923.968963   1310.379895  20932.068127   -296.496763                    
V 12 -13021.041074  23892.570138   8404.822674     -0.044849                    
P 13  15620.214468  13037.009862 -17344.998075    412.706619                    
V 13 -21641.653069    -90.388531 -19573.057011      0.069689                    
P 14 -13279.645008  22896.796580  -1243.590911    -91.141721                    
V 14  -2090.261788  -2931.106490 -31555.849235      0.042996                    
P 15  23160.459174   4985.087038 -12736.175867    -17.903277                    
V 15 -14592.994173   5718.812816 -24895.074932      0.031536                    
P 16  -4929.270452 -17607.548740 -19374.734178   -526.614934                    
V 16  13739.217070 -19907.608769  15262.199975     -0.003500                    
P 17 -13915.047710  12919.493286  19041.222318    672.098129                    
V 17 -23197.999373   -948.205739 -16633.866381      0.034862                    
P 18  12144.550158  -8739.307601 -21944.883030      1.865025                    
V 18  15152.210682  23334.845221  -1045.163401     -0.136134                    
P 19  -2072.316317  14680.289170  21793.143124    228.618118                    
V 19 -28171.418904  -1396.061149  -1967.847800      0.050465                    
P 20   2742.603243  23144.515664 -12934.554852    475.446609                    
V 20  -7140.788085  14964.523576  25008.839370     -0.030937                    
P 21 -20541.504251 -14802.617439   9798.249517    157.370476                    
V 21  -5664.200964  -9987.533163 -28036.550371     -0.008251                    
P 22  -1271.241351 -15396.619922  22033.880342    352.347979                    
V 22  26963.261876    377.109165   1681.825316      0.069997                    
P 23  15946.303233 -18736.586515  -9835.371230     -1.127985                    
V 23  -3058.332232  12351.831032 -28643.754249     -0.000904                    
P 24  20670.597149  11296.426450  12340.473094     85.777464                    
V 24   7876.277883  14301.904718 -25181.323153     -0.150421                    
P 25  17777.358276 -10938.672042  15966.747241    386.062969                    
V 25  -7017.503444  19864.672997  21309.942186      0.038382                    
P 26   1266.267914 -24016.894557 -10988.145155    233.715424                    
V 26   8453.241040 -11627.274211  26933.016764      0.012637                    
P 27 -12349.376847 -12892.870362 -20008.930967    191.564897                    
V 27  24668.420885  -2509.825306 -13368.059397     -0.071614                    
P 28  -7892.525453  24193.353184   8540.826655    324.055345                    
V 28  -7080.459244   7484.323850 -29239.985648     -0.056358                    
P 29  25261.468489  -4509.683420  -7059.384005   -562.396816                    
V 29   8850.629669   2135.291493  30410.275004     -0.028540                    
P 30  -4982.054586  17818.087751 -18875.427799   -537.123739                    
V 30 -14801.723129 -19392.640724 -14583.202409      0.001232                    
P 31  -3901.967695 -22724.858455  12611.565545   -198.014179                    
V 31  11204.358276  12362.724052  25895.095923     -0.012948                    
P 32  10071.647704 -14694.228233  19786.522257   -274.846843                    
V 32  24896.783152   -579.142125 -13395.929799     -0.121715                    
EOF
